ONEWEB-0320             
1 49190U 21083E   24240.39024736  .00000047  00000+0  86393-4 0  9996
2 49190  87.9096 106.6182 0001783  80.6975 279.4359 13.18685052143154
ONEWEB-0321             
1 49191U 21083F   24240.41988882  .00000130  00000+0  28697-3 0  9996
2 49191  87.9201  45.4751 0001601  98.5805 261.5510 13.20770164149872
ONEWEB-0322             
1 49192U 21083G   24240.29475046 -.00000021  00000+0 -93607-4 0  9991
2 49192  87.8869  91.3747 0001496  98.4279 261.7020 13.13470755144422
ONEWEB-0324             
1 49193U 21083H   24240.37601856  .00000032  00000+0  49550-4 0  9999
2 49193  87.9094 106.6022 0002028  82.0816 278.0546 13.18685299143179
ONEWEB-0325             
1 49194U 21083J   24240.38075250  .00000023  00000+0  26138-4 0  9991
2 49194  87.9097 106.6161 0001709  79.8449 280.2875 13.18683790143183
ONEWEB-0326             
1 49195U 21083K   24240.39499432 -.00000025  00000+0 -95836-4 0  9990
2 49195  87.9093 106.6103 0002194  71.5820 288.5551 13.18685984143175
ONEWEB-0327             
1 49196U 21083L   24240.36889922  .00000037  00000+0  59981-4 0  9997
2 49196  87.9095 106.6284 0001934  69.7710 290.3630 13.18685444143198
ONEWEB-0328             
1 49197U 21083M   24240.28522733  .00000212  00000+0  54474-3 0  9999
2 49197  87.8859  91.3534 0001791  83.3934 276.7398 13.13469886144404
